[{"OBJECT_NAME":"STARLINK-2476","OBJECT_ID":"2021-027AU","EPOCH":"2026-03-09T12:39:01.510848","MEAN_MOTION":15.30213621,"ECCENTRICITY":0.00017332,"INCLINATION":53.1609,"RA_OF_ASC_NODE":166.028,"ARG_OF_PERICENTER":85.9786,"MEAN_ANOMALY":274.1413,"EPHEMERIS_TYPE":0,"CLASSIFICATION_TYPE":"U","NORAD_CAT_ID":48134,"ELEMENT_SET_NO":999,"REV_AT_EPOCH":27248,"BSTAR":-8.465277e-6,"MEAN_MOTION_DOT":-6.1e-6,"MEAN_MOTION_DDOT":0},{"OBJECT_NAME":"KUIPER-00222","OBJECT_ID":"2026-030U","EPOCH":"2026-03-09T16:13:57.726048","MEAN_MOTION":15.32445377,"ECCENTRICITY":0.00128002,"INCLINATION":51.8817,"RA_OF_ASC_NODE":219.7147,"ARG_OF_PERICENTER":40.1845,"MEAN_ANOMALY":320.0084,"EPHEMERIS_TYPE":0,"CLASSIFICATION_TYPE":"U","NORAD_CAT_ID":67782,"ELEMENT_SET_NO":999,"REV_AT_EPOCH":508,"BSTAR":0.0017317201,"MEAN_MOTION_DOT":0.00055223,"MEAN_MOTION_DDOT":0}]
